NORAD_CAT_ID,OBJECT_NAME,OBJECT_TYPE,EPOCH,MEAN_MOTION,ECCENTRICITY,INCLINATION,RA_OF_ASC_NODE,ARG_OF_PERICENTER,MEAN_ANOMALY,BSTAR,MEAN_MOTION_DOT,MEAN_MOTION_DDOT,TLE_LINE0,TLE_LINE1,TLE_LINE2,SEMIMAJOR_AXIS,PERIOD,APOGEE,PERIGEE,DECAYED
49152.0,STARLINK-3081,PAYLOAD,2024-08-02 14:25:53,14.98326796,0.0003113,69.9995,287.1384,273.6451,86.4352,2.117e-05,1.6e-06,0.0,0 STARLINK-3081,1 49152U 21082Y   24215.60131205  .00000160  00000-0  21170-4 0  9998,2 49152  69.9995 287.1384 0003113 273.6451  86.4352 14.98326796160593,6950.203,96.107,574.231,569.904,0.0
49152.0,STARLINK-3081,PAYLOAD,2024-08-02 22:26:33,14.98328232,0.0003159,69.9992,286.296,273.7011,86.3787,-6.2265e-06,-1.67e-06,0.0,0 STARLINK-3081,1 49152U 21082Y   24215.93511188 -.00000167  00000-0 -62265-5 0  9996,2 49152  69.9992 286.2960 0003159 273.7011  86.3787 14.98328232160647,6950.198,96.107,574.259,569.868,0.0
49152.0,STARLINK-3081,PAYLOAD,2024-08-03 12:51:45,14.98335939,0.0003197,69.9991,284.7798,271.8328,88.2465,-4.524e-05,-6.33e-06,0.0,0 STARLINK-3081,1 49152U 21082Y   24216.53594690 -.00000633  00000-0 -45240-4 0  9993,2 49152  69.9991 284.7798 0003197 271.8328  88.2465 14.98335939160747,6950.175,96.107,574.261,569.818,0.0
49152.0,STARLINK-3081,PAYLOAD,2024-08-03 14:27:53,14.98336638,0.0003193,69.9991,284.6115,271.8636,88.2158,-3.5962e-05,-5.22e-06,0.0,0 STARLINK-3081,1 49152U 21082Y   24216.60270596 -.00000522  00000-0 -35962-4 0  9994,2 49152  69.9991 284.6115 0003193 271.8636  88.2158 14.98336638160743,6950.172,96.107,574.257,569.818,0.0
49152.0,STARLINK-3081,PAYLOAD,2024-08-03 22:28:33,14.98357853,0.0003346,69.9993,283.7696,271.2444,88.8332,-0.0004835,-5.862e-05,0.0,0 STARLINK-3081,1 49152U 21082Y   24216.93650070 -.00005862  00000-0 -48350-3 0  9995,2 49152  69.9993 283.7696 0003346 271.2444  88.8332 14.98357853160797,6950.107,96.105,574.297,569.646,0.0
49152.0,STARLINK-3081,PAYLOAD,2024-08-04 04:53:06,14.98326134,0.0003164,69.9993,283.0964,271.7917,88.288,3.2796e-05,2.98e-06,0.0,0 STARLINK-3081,1 49152U 21082Y   24217.20355003  .00000298  00000-0  32796-4 0  9998,2 49152  69.9993 283.0964 0003164 271.7917  88.2880 14.98326134160842,6950.205,96.107,574.269,569.871,0.0
49152.0,STARLINK-3081,PAYLOAD,2024-08-04 14:29:54,14.9833193,0.000315,69.9993,282.0864,271.5587,88.5211,5.5459e-05,5.69e-06,0.0,0 STARLINK-3081,1 49152U 21082Y   24217.60410612  .00000569  00000-0  55459-4 0  9992,2 49152  69.9993 282.0864 0003150 271.5587  88.5211 14.98331930160892,6950.187,96.107,574.241,569.863,0.0
49152.0,STARLINK-3081,PAYLOAD,2024-08-05 04:55:07,14.98334944,0.0003127,69.9992,280.5715,271.6135,88.4666,4.2923e-05,4.19e-06,0.0,0 STARLINK-3081,1 49152U 21082Y   24218.20494362  .00000419  00000-0  42923-4 0  9999,2 49152  69.9992 280.5715 0003127 271.6135  88.4666 14.98334944160995,6950.178,96.107,574.216,569.869,0.0
49152.0,STARLINK-3081,PAYLOAD,2024-08-05 20:56:27,14.98336117,0.0003152,69.9992,278.8883,271.3975,88.6823,-9.6118e-05,-1.24e-05,0.0,0 STARLINK-3081,1 49152U 21082Y   24218.87254373 -.00001240  00000-0 -96118-4 0  9998,2 49152  69.9992 278.8883 0003152 271.3975  88.6823 14.98336117161080,6950.174,96.107,574.23,569.848,0.0
49152.0,STARLINK-3081,PAYLOAD,2024-08-06 04:57:08,14.98324664,0.0002995,69.9995,278.0468,272.2663,87.8153,-6.5256e-05,-8.71e-06,0.0,0 STARLINK-3081,1 49152U 21082Y   24219.20635131 -.00000871  00000-0 -65256-4 0  9999,2 49152  69.9995 278.0468 0002995 272.2663  87.8153 14.98324664161140,6950.209,96.107,574.156,569.993,0.0
49152.0,STARLINK-3081,PAYLOAD,2024-08-06 14:33:57,14.9832321,0.0002868,69.9998,277.0391,262.7311,97.3522,-6.2206e-05,-8.35e-06,0.0,0 STARLINK-3081,1 49152U 21082Y   24219.60691297 -.00000835  00000-0 -62206-4 0  9990,2 49152  69.9998 277.0391 0002868 262.7311  97.3522 14.98323210161197,6950.214,96.107,574.072,570.086,0.0
49152.0,STARLINK-3081,PAYLOAD,2024-08-07 11:23:41,14.98331364,0.0003085,69.9992,274.8495,270.8107,89.2699,-4.0594e-05,-5.77e-06,0.0,0 STARLINK-3081,1 49152U 21082Y   24220.47478787 -.00000577  00000-0 -40594-4 0  9993,2 49152  69.9992 274.8495 0003085 270.8107  89.2699 14.98331364161336,6950.189,96.107,574.198,569.91,0.0
49152.0,STARLINK-3081,PAYLOAD,2024-08-08 13:01:50,14.98331648,0.0003009,69.9994,272.157,267.9034,92.178,0.0001439,1.624e-05,0.0,0 STARLINK-3081,1 49152U 21082Y   24221.54294151  .00001624  00000-0  14390-3 0  9999,2 49152  69.9994 272.1570 0003009 267.9034  92.1780 14.98331648161480,6950.188,96.107,574.144,569.961,0.0
49152.0,STARLINK-3081,PAYLOAD,2024-08-08 21:02:30,14.98327784,0.0002857,69.9998,271.3143,274.6733,85.41,9.7805e-05,1.074e-05,0.0,0 STARLINK-3081,1 49152U 21082Y   24221.87674624  .00001074  00000-0  97805-4 0  9994,2 49152  69.9998 271.3143 0002857 274.6733  85.4100 14.98327784161546,6950.2,96.107,574.05,570.079,0.0
49152.0,STARLINK-3081,PAYLOAD,2024-08-09 13:03:51,14.98330911,0.0003246,69.9986,269.6297,271.1164,88.9623,1.3228e-05,6.5e-07,0.0,0 STARLINK-3081,1 49152U 21082Y   24222.54434445  .00000065  00000-0  13228-4 0  9990,2 49152  69.9986 269.6297 0003246 271.1164  88.9623 14.98330911161630,6950.19,96.107,574.311,569.799,0.0
49152.0,STARLINK-3081,PAYLOAD,2024-08-10 03:29:04,14.98331936,0.0003196,69.9987,268.1145,270.9952,89.0841,-6.4516e-05,-8.63e-06,0.0,0 STARLINK-3081,1 49152U 21082Y   24223.14518528 -.00000863  00000-0 -64516-4 0  9996,2 49152  69.9987 268.1145 0003196 270.9952  89.0841 14.98331936161736,6950.187,96.107,574.273,569.831,0.0
49152.0,STARLINK-3081,PAYLOAD,2024-08-10 13:05:52,14.9833276,0.0003194,69.9986,267.1046,271.0876,88.9917,-4.563e-05,-6.37e-06,0.0,0 STARLINK-3081,1 49152U 21082Y   24223.54574374 -.00000637  00000-0 -45630-4 0  9996,2 49152  69.9986 267.1046 0003194 271.0876  88.9917 14.98332760161782,6950.184,96.107,574.269,569.829,0.0
49152.0,STARLINK-3081,PAYLOAD,2024-08-11 11:31:44,14.98332236,0.0003327,69.998,264.7484,270.6278,89.4499,4.8273e-05,4.83e-06,0.0,0 STARLINK-3081,1 49152U 21082Y   24224.48038144  .00000483  00000-0  48273-4 0  9993,2 49152  69.9980 264.7484 0003327 270.6278  89.4499 14.98332236161930,6950.186,96.107,574.363,569.739,0.0
49152.0,STARLINK-3081,PAYLOAD,2024-08-11 21:08:33,14.98330868,0.0003331,69.9979,263.7382,270.7485,89.3292,2.4381e-05,1.98e-06,0.0,0 STARLINK-3081,1 49152U 21082Y   24224.88094247  .00000198  00000-0  24381-4 0  9990,2 49152  69.9979 263.7382 0003331 270.7485  89.3292 14.98330868161984,6950.19,96.107,574.37,569.74,0.0
49152.0,STARLINK-3081,PAYLOAD,2024-08-12 11:33:45,14.98339663,0.0003336,69.9978,262.2232,270.3453,89.7323,0.00012349,1.381e-05,0.0,0 STARLINK-3081,1 49152U 21082Y   24225.48177341  .00001381  00000-0  12349-3 0  9999,2 49152  69.9978 262.2232 0003336 270.3453  89.7323 14.98339663162080,6950.163,96.106,574.347,569.709,0.0
49152.0,STARLINK-3081,PAYLOAD,2024-08-12 13:09:53,14.98340901,0.0003336,69.9978,262.0549,270.3602,89.7175,0.00013546,1.524e-05,0.0,0 STARLINK-3081,1 49152U 21082Y   24225.54853197  .00001524  00000-0  13546-3 0  9995,2 49152  69.9978 262.0549 0003336 270.3602  89.7175 14.98340901162087,6950.159,96.106,574.343,569.706,0.0
49152.0,STARLINK-3081,PAYLOAD,2024-08-12 19:34:25,14.98332837,0.0003258,69.9978,261.3816,267.9354,92.1432,4.4368e-05,4.36e-06,0.0,0 STARLINK-3081,1 49152U 21082Y   24225.81557826  .00000436  00000-0  44368-4 0  9993,2 49152  69.9978 261.3816 0003258 267.9354  92.1432 14.98332837162134,6950.184,96.107,574.313,569.785,0.0
49152.0,STARLINK-3081,PAYLOAD,2024-08-12 22:46:42,14.9833183,0.0003243,69.9979,261.0453,269.1273,90.9514,1.3425e-05,6.7e-07,0.0,0 STARLINK-3081,1 49152U 21082Y   24225.94909949  .00000067  00000-0  13425-4 0  9994,2 49152  69.9979 261.0453 0003243 269.1273  90.9514 14.98331830162147,6950.187,96.107,574.306,569.798,0.0
49152.0,STARLINK-3081,PAYLOAD,2024-08-13 13:11:54,14.98335391,0.000327,69.9977,259.5299,269.801,90.2775,6.2158e-05,6.49e-06,0.0,0 STARLINK-3081,1 49152U 21082Y   24226.54993464  .00000649  00000-0  62158-4 0  9999,2 49152  69.9977 259.5299 0003270 269.8010  90.2775 14.98335391162239,6950.176,96.107,574.314,569.769,0.0
49152.0,STARLINK-3081,PAYLOAD,2024-08-13 19:36:29,14.98304515,0.0003189,69.9976,258.8566,271.5692,88.5102,-0.00031634,-3.863e-05,0.0,0 STARLINK-3081,1 49152U 21082Y   24226.81700535 -.00003863  00000-0 -31634-3 0  9991,2 49152  69.9976 258.8566 0003189 271.5692  88.5102 14.98304515162285,6950.272,96.109,574.353,569.92,0.0
49152.0,STARLINK-3081,PAYLOAD,2024-08-14 13:13:59,14.98301287,0.0003203,69.9975,257.005,272.0332,88.046,-0.00030112,-3.681e-05,0.0,0 STARLINK-3081,1 49152U 21082Y   24227.55137952 -.00003681  00000-0 -30112-3 0  9998,2 49152  69.9975 257.0050 0003203 272.0332  88.0460 14.98301287162383,6950.282,96.109,574.373,569.921,0.0
49152.0,STARLINK-3081,PAYLOAD,2024-08-14 19:38:29,14.98329075,0.0003201,69.9976,256.3317,273.0099,87.0693,-3.1992e-05,-4.75e-06,0.0,0 STARLINK-3081,1 49152U 21082Y   24227.81839860 -.00000475  00000-0 -31992-4 0  9990,2 49152  69.9976 256.3317 0003201 273.0099  87.0693 14.98329075162439,6950.196,96.107,574.286,569.836,0.0
49152.0,STARLINK-3081,PAYLOAD,2024-08-14 21:14:37,14.98330666,0.0003152,69.9976,256.1635,273.9202,86.1597,-9.4988e-06,-2.06e-06,0.0,0 STARLINK-3081,1 49152U 21082Y   24227.88515730 -.00000206  00000-0 -94988-5 0  9991,2 49152  69.9976 256.1635 0003152 273.9202  86.1597 14.98330666162431,6950.191,96.107,574.247,569.865,0.0
49152.0,STARLINK-3081,PAYLOAD,2024-08-15 13:15:58,14.98332317,0.0003156,69.9975,254.4798,273.8721,86.2077,0.00013167,1.478e-05,0.0,0 STARLINK-3081,1 49152U 21082Y   24228.55275525  .00001478  00000-0  13167-3 0  9999,2 49152  69.9975 254.4798 0003156 273.8721  86.2077 14.98332317162530,6950.186,96.107,574.244,569.857,0.0
49152.0,STARLINK-3081,PAYLOAD,2024-08-15 19:40:30,14.98336182,0.0003163,69.9974,253.8064,274.4502,85.6295,0.0001433,1.617e-05,0.0,0 STARLINK-3081,1 49152U 21082Y   24228.81979277  .00001617  00000-0  14330-3 0  9991,2 49152  69.9974 253.8064 0003163 274.4502  85.6295 14.98336182162584,6950.174,96.107,574.237,569.84,0.0
